start=new Date('2022-06-25T00:00:00.000Z').valueOf();
sats=[{"REF_FRAME":"TEME","GP_ID":"206790853","MEAN_MOTION_DDOT":"0.0000000000000","SEMIMAJOR_AXIS":"6917.951","TLE_LINE2":"2 52103  53.2164  36.4472 0001864  50.4704  99.8586 15.08816781  1303","CENTER_NAME":"EARTH","MEAN_ANOMALY":"99.8586","NORAD_CAT_ID":"52103","CLASSIFICATION_TYPE":"U","BSTAR":"0.00002085700000","ELEMENT_SET_NO":"999","OBJECT_ID":"2022-029R","APOAPSIS":"541.106","COUNTRY_CODE":"US","EPHEMERIS_TYPE":"0","DECAY_DATE":null,"OBJECT_NAME":"STARLINK-3705","SITE":"AFETR","MEAN_MOTION":"15.08816781","ECCENTRICITY":"0.00018640","OBJECT_TYPE":"PAYLOAD","FILE":"3501798","PERIAPSIS":"538.527","ARG_OF_PERICENTER":"50.4704","EPOCH":"2022-06-24T22:00:01.999584","RCS_SIZE":"LARGE","MEAN_MOTION_DOT":"0.00000044","LAUNCH_DATE":"2022-03-19","TIME_SYSTEM":"UTC","PERIOD":"95.439","MEAN_ELEMENT_THEORY":"SGP4","RA_OF_ASC_NODE":"36.4472","TLE_LINE1":"1 52103U 22029R   22175.91668981  .00000044  00000-0  20857-4 0  9995","REV_AT_EPOCH":"130","INCLINATION":"53.2164"},{"GP_ID":"206790959","MEAN_MOTION_DDOT":"0.0000000000000","SEMIMAJOR_AXIS":"6917.875","TLE_LINE2":"2 52105  53.2149  36.4447 0001700  52.6279 132.4836 15.08841882  1302","REF_FRAME":"TEME","CENTER_NAME":"EARTH","NORAD_CAT_ID":"52105","MEAN_ANOMALY":"132.4836","BSTAR":"0.00014586000000","ELEMENT_SET_NO":"999","OBJECT_ID":"2022-029T","APOAPSIS":"540.916","COUNTRY_CODE":"US","CLASSIFICATION_TYPE":"U","SITE":"AFETR","EPHEMERIS_TYPE":"0","DECAY_DATE":null,"OBJECT_NAME":"STARLINK-3706","OBJECT_TYPE":"PAYLOAD","MEAN_MOTION":"15.08841882","ECCENTRICITY":"0.00017000","EPOCH":"2022-06-24T22:00:01.999584","RCS_SIZE":"LARGE","FILE":"3501798","PERIAPSIS":"538.564","ARG_OF_PERICENTER":"52.6279","RA_OF_ASC_NODE":"36.4447","PERIOD":"95.437","MEAN_ELEMENT_THEORY":"SGP4","TLE_LINE1":"1 52105U 22029T   22175.91668981  .00002034  00000-0  14586-3 0  9999","REV_AT_EPOCH":"130","INCLINATION":"53.2149","MEAN_MOTION_DOT":"0.00002034","TIME_SYSTEM":"UTC","LAUNCH_DATE":"2022-03-19"},{"REF_FRAME":"TEME","SEMIMAJOR_AXIS":"6917.924","TLE_LINE2":"2 52106  53.2178  46.4313 0001620  71.5691   3.7524 15.08825574  1301","GP_ID":"206790400","MEAN_MOTION_DDOT":"0.0000000000000","CENTER_NAME":"EARTH","MEAN_ANOMALY":"3.7524","NORAD_CAT_ID":"52106","CLASSIFICATION_TYPE":"U","APOAPSIS":"540.910","COUNTRY_CODE":"US","BSTAR":"-0.00066462000000","ELEMENT_SET_NO":"999","OBJECT_ID":"2022-029U","OBJECT_NAME":"STARLINK-3670","EPHEMERIS_TYPE":"0","DECAY_DATE":null,"SITE":"AFETR","ECCENTRICITY":"0.00016200","MEAN_MOTION":"15.08825574","OBJECT_TYPE":"PAYLOAD","PERIAPSIS":"538.669","ARG_OF_PERICENTER":"71.5691","FILE":"3501798","RCS_SIZE":"LARGE","EPOCH":"2022-06-24T22:00:01.999584","LAUNCH_DATE":"2022-03-19","TIME_SYSTEM":"UTC","MEAN_MOTION_DOT":"-0.00010846","REV_AT_EPOCH":"130","INCLINATION":"53.2178","MEAN_ELEMENT_THEORY":"SGP4","PERIOD":"95.438","RA_OF_ASC_NODE":"46.4313","TLE_LINE1":"1 52106U 22029U   22175.91668981 -.00010846  00000-0 -66462-3 0  9992"},{"TLE_LINE2":"2 52107  53.2137  36.4432 0001967  39.6513 170.6477 15.08830882  1309","SEMIMAJOR_AXIS":"6917.908","MEAN_MOTION_DDOT":"0.0000000000000","GP_ID":"206791065","REF_FRAME":"TEME","CENTER_NAME":"EARTH","NORAD_CAT_ID":"52107","MEAN_ANOMALY":"170.6477","COUNTRY_CODE":"US","APOAPSIS":"541.134","OBJECT_ID":"2022-029V","BSTAR":"0.00022095000000","ELEMENT_SET_NO":"999","CLASSIFICATION_TYPE":"U","SITE":"AFETR","OBJECT_NAME":"STARLINK-3658","DECAY_DATE":null,"EPHEMERIS_TYPE":"0","OBJECT_TYPE":"PAYLOAD","ECCENTRICITY":"0.00019670","MEAN_MOTION":"15.08830882","RCS_SIZE":"LARGE","EPOCH":"2022-06-24T22:00:01.999584","ARG_OF_PERICENTER":"39.6513","PERIAPSIS":"538.413","FILE":"3501798","INCLINATION":"53.2137","REV_AT_EPOCH":"130","TLE_LINE1":"1 52107U 22029V   22175.91668981  .00003229  00000-0  22095-3 0  9992","PERIOD":"95.438","RA_OF_ASC_NODE":"36.4432","MEAN_ELEMENT_THEORY":"SGP4","LAUNCH_DATE":"2022-03-19","TIME_SYSTEM":"UTC","MEAN_MOTION_DOT":"0.00003229"},{"CENTER_NAME":"EARTH","TLE_LINE2":"2 52108  53.2156  36.4462 0001880  48.5896 121.7608 15.08824793  1308","SEMIMAJOR_AXIS":"6917.927","MEAN_MOTION_DDOT":"0.0000000000000","GP_ID":"206790506","REF_FRAME":"TEME","COUNTRY_CODE":"US","APOAPSIS":"541.092","OBJECT_ID":"2022-029W","BSTAR":"0.00011034000000","ELEMENT_SET_NO":"999","CLASSIFICATION_TYPE":"U","NORAD_CAT_ID":"52108","MEAN_ANOMALY":"121.7608","OBJECT_TYPE":"PAYLOAD","ECCENTRICITY":"0.00018800","MEAN_MOTION":"15.08824793","SITE":"AFETR","OBJECT_NAME":"STARLINK-3698","DECAY_DATE":null,"EPHEMERIS_TYPE":"0","INCLINATION":"53.2156","REV_AT_EPOCH":"130","TLE_LINE1":"1 52108U 22029W   22175.91668981  .00001468  00000-0  11034-3 0  9997","MEAN_ELEMENT_THEORY":"SGP4","PERIOD":"95.439","RA_OF_ASC_NODE":"36.4462","TIME_SYSTEM":"UTC","LAUNCH_DATE":"2022-03-19","MEAN_MOTION_DOT":"0.00001468","RCS_SIZE":"LARGE","EPOCH":"2022-06-24T22:00:01.999584","ARG_OF_PERICENTER":"48.5896","PERIAPSIS":"538.491","FILE":"3501798"},{"APOAPSIS":"541.129","COUNTRY_CODE":"US","ELEMENT_SET_NO":"999","BSTAR":"-0.00261130000000","OBJECT_ID":"2022-029Y","CLASSIFICATION_TYPE":"U","NORAD_CAT_ID":"52110","MEAN_ANOMALY":"141.5662","CENTER_NAME":"EARTH","SEMIMAJOR_AXIS":"6917.861","TLE_LINE2":"2 52110  53.2148  36.4445 0002027  48.7561 141.5662 15.08846234  1302","GP_ID":"206790612","MEAN_MOTION_DDOT":"0.0000000000000","REF_FRAME":"TEME","REV_AT_EPOCH":"130","INCLINATION":"53.2148","RA_OF_ASC_NODE":"36.4445","PERIOD":"95.437","MEAN_ELEMENT_THEORY":"SGP4","TLE_LINE1":"1 52110U 22029Y   22175.91668981 -.00041615  00000-0 -26113-2 0  9993","LAUNCH_DATE":"2022-03-19","TIME_SYSTEM":"UTC","MEAN_MOTION_DOT":"-0.00041615","RCS_SIZE":"LARGE","EPOCH":"2022-06-24T22:00:01.999584","PERIAPSIS":"538.324","ARG_OF_PERICENTER":"48.7561","FILE":"3501798","OBJECT_TYPE":"PAYLOAD","ECCENTRICITY":"0.00020270","MEAN_MOTION":"15.08846234","SITE":"AFETR","OBJECT_NAME":"STARLINK-3687","EPHEMERIS_TYPE":"0","DECAY_DATE":null},{"CENTER_NAME":"EARTH","MEAN_MOTION_DDOT":"0.0000000000000","GP_ID":"206790748","TLE_LINE2":"2 52111  53.2129  36.4411 0001853  52.6870 217.6360 15.08819502  1306","SEMIMAJOR_AXIS":"6917.943","REF_FRAME":"TEME","OBJECT_ID":"2022-029Z","ELEMENT_SET_NO":"999","BSTAR":"0.00027202000000","COUNTRY_CODE":"US","APOAPSIS":"541.090","CLASSIFICATION_TYPE":"U","NORAD_CAT_ID":"52111","MEAN_ANOMALY":"217.6360","OBJECT_TYPE":"PAYLOAD","MEAN_MOTION":"15.08819502","ECCENTRICITY":"0.00018530","SITE":"AFETR","DECAY_DATE":null,"EPHEMERIS_TYPE":"0","OBJECT_NAME":"STARLINK-3708","TLE_LINE1":"1 52111U 22029Z   22175.91668981  .00004041  00000-0  27202-3 0  9995","RA_OF_ASC_NODE":"36.4411","PERIOD":"95.439","MEAN_ELEMENT_THEORY":"SGP4","INCLINATION":"53.2129","REV_AT_EPOCH":"130","MEAN_MOTION_DOT":"0.00004041","LAUNCH_DATE":"2022-03-19","TIME_SYSTEM":"UTC","EPOCH":"2022-06-24T22:00:01.999584","RCS_SIZE":"LARGE","FILE":"3501798","ARG_OF_PERICENTER":"52.6870","PERIAPSIS":"538.526"},{"LAUNCH_DATE":"2022-03-19","TIME_SYSTEM":"UTC","MEAN_MOTION_DOT":"0.00004132","REV_AT_EPOCH":"130","INCLINATION":"53.2129","PERIOD":"95.439","RA_OF_ASC_NODE":"36.4420","MEAN_ELEMENT_THEORY":"SGP4","TLE_LINE1":"1 52112U 22029AA  22175.91668981  .00004132  00000-0  27772-3 0  9999","PERIAPSIS":"538.420","ARG_OF_PERICENTER":"50.3581","FILE":"3501798","RCS_SIZE":"LARGE","EPOCH":"2022-06-24T22:00:01.999584","ECCENTRICITY":"0.00020100","MEAN_MOTION":"15.08818658","OBJECT_TYPE":"PAYLOAD","OBJECT_NAME":"STARLINK-3734","EPHEMERIS_TYPE":"0","DECAY_DATE":null,"SITE":"AFETR","CLASSIFICATION_TYPE":"U","APOAPSIS":"541.201","COUNTRY_CODE":"US","BSTAR":"0.00027772000000","ELEMENT_SET_NO":"999","OBJECT_ID":"2022-029AA","MEAN_ANOMALY":"179.9839","NORAD_CAT_ID":"52112","CENTER_NAME":"EARTH","REF_FRAME":"TEME","SEMIMAJOR_AXIS":"6917.946","TLE_LINE2":"2 52112  53.2129  36.4420 0002010  50.3581 179.9839 15.08818658  1309","GP_ID":"206790718","MEAN_MOTION_DDOT":"0.0000000000000"},{"REF_FRAME":"TEME","SEMIMAJOR_AXIS":"6917.903","TLE_LINE2":"2 52113  53.2159  36.4301 0001851  46.7465 263.5680 15.08832546  1309","GP_ID":"206790854","MEAN_MOTION_DDOT":"0.0000000000000","CENTER_NAME":"EARTH","MEAN_ANOMALY":"263.5680","NORAD_CAT_ID":"52113","CLASSIFICATION_TYPE":"U","APOAPSIS":"541.049","COUNTRY_CODE":"US","BSTAR":"0.00007080100000","ELEMENT_SET_NO":"999","OBJECT_ID":"2022-029AB","OBJECT_NAME":"STARLINK-3736","EPHEMERIS_TYPE":"0","DECAY_DATE":null,"SITE":"AFETR","ECCENTRICITY":"0.00018510","MEAN_MOTION":"15.08832546","OBJECT_TYPE":"PAYLOAD","PERIAPSIS":"538.488","ARG_OF_PERICENTER":"46.7465","FILE":"3501798","RCS_SIZE":"LARGE","EPOCH":"2022-06-24T22:00:01.999584","LAUNCH_DATE":"2022-03-19","TIME_SYSTEM":"UTC","MEAN_MOTION_DOT":"0.00000839","REV_AT_EPOCH":"130","INCLINATION":"53.2159","PERIOD":"95.438","MEAN_ELEMENT_THEORY":"SGP4","RA_OF_ASC_NODE":"36.4301","TLE_LINE1":"1 52113U 22029AB  22175.91668981  .00000839  00000-0  70801-4 0  9992"},{"RCS_SIZE":"LARGE","EPOCH":"2022-06-24T22:00:01.999584","PERIAPSIS":"538.390","ARG_OF_PERICENTER":"50.8194","FILE":"3501798","REV_AT_EPOCH":"130","INCLINATION":"53.2137","MEAN_ELEMENT_THEORY":"SGP4","PERIOD":"95.438","RA_OF_ASC_NODE":"36.4422","TLE_LINE1":"1 52114U 22029AC  22175.91668981  .00003671  00000-0  24871-3 0  9995","LAUNCH_DATE":"2022-03-19","TIME_SYSTEM":"UTC","MEAN_MOTION_DOT":"0.00003671","SITE":"AFETR","OBJECT_NAME":"STARLINK-3737","EPHEMERIS_TYPE":"0","DECAY_DATE":null,"OBJECT_TYPE":"PAYLOAD","ECCENTRICITY":"0.00019940","MEAN_MOTION":"15.08832176","NORAD_CAT_ID":"52114","MEAN_ANOMALY":"199.5084","APOAPSIS":"541.149","COUNTRY_CODE":"US","ELEMENT_SET_NO":"999","BSTAR":"0.00024871000000","OBJECT_ID":"2022-029AC","CLASSIFICATION_TYPE":"U","SEMIMAJOR_AXIS":"6917.904","TLE_LINE2":"2 52114  53.2137  36.4422 0001994  50.8194 199.5084 15.08832176  1308","GP_ID":"206790960","MEAN_MOTION_DDOT":"0.0000000000000","REF_FRAME":"TEME","CENTER_NAME":"EARTH"}];
